{"type":"FeatureCollection", "features": [
{"type":"Feature","geometry":{"type":"Polygon","coordinates":[[[5.747304,45.511689],[5.752723,45.511298],[5.758201,45.502531],[5.75851,45.492031],[5.76985,45.493709],[5.786542,45.491784],[5.79397,45.487877],[5.79819,45.490854],[5.802847,45.504892],[5.807421,45.511741],[5.81852,45.521919],[5.825984,45.53182],[5.830938,45.548098],[5.823296,45.55698],[5.817467,45.580395],[5.819316,45.5843],[5.814873,45.609428],[5.814743,45.613144],[5.817728,45.618074],[5.81814,45.629679],[5.817259,45.645195],[5.821234,45.662362],[5.827809,45.669857],[5.832828,45.673873],[5.840585,45.682921],[5.847135,45.692938],[5.846918,45.704652],[5.844291,45.712839],[5.831192,45.729233],[5.823169,45.7325],[5.815011,45.742794],[5.811295,45.749123],[5.813095,45.755032],[5.818461,45.761733],[5.814038,45.764032],[5.798355,45.76222],[5.794385,45.768646],[5.795318,45.780414],[5.78138,45.780843],[5.780072,45.777416],[5.783072,45.772911],[5.781029,45.76496],[5.78384,45.751244],[5.781902,45.743103],[5.769838,45.741303],[5.776156,45.729223],[5.773296,45.723592],[5.764799,45.720295],[5.756681,45.708733],[5.748762,45.705296],[5.731325,45.710148],[5.727541,45.709226],[5.711568,45.709708],[5.704123,45.710923],[5.699722,45.708308],[5.701013,45.702101],[5.705729,45.696197],[5.709582,45.688831],[5.70833,45.683061],[5.698664,45.675202],[5.687061,45.668165],[5.683666,45.661964],[5.689182,45.648502],[5.684861,45.641487],[5.678124,45.638357],[5.659531,45.638685],[5.653598,45.63715],[5.649412,45.633717],[5.647793,45.625976],[5.636953,45.621749],[5.635807,45.614399],[5.631641,45.611235],[5.622165,45.611559],[5.623021,45.604283],[5.643094,45.585618],[5.647082,45.576743],[5.654826,45.570121],[5.669536,45.563199],[5.675166,45.552451],[5.680358,45.545047],[5.673341,45.543457],[5.671708,45.536571],[5.676849,45.530475],[5.690153,45.528051],[5.691247,45.521805],[5.701106,45.517546],[5.702673,45.511196],[5.71251,45.505294],[5.714919,45.498355],[5.715032,45.493377],[5.720095,45.483566],[5.729481,45.490485],[5.742172,45.502706],[5.747304,45.511689]]]},"properties":{"name": "Avant-Pays Savoyard", "loc_name": "Avant Pays Savoyard", "ID_GEOFLA":"29044","STATUT":"Commune simple","X_CHF_LIEU":"910488","Y_CHF_LIEU":"6500501","X_CENTROID":"910488","Y_CENTROID":"6500534","Z_MOYEN":"361","SUPERFICIE":"8784","CODE_DEPT":"73","NOM_DEPT":"SAVOIE","CODE_REG":"84","NOM_REGION":"AUVERGNE-RHONE-ALPES","insee_2018":"73039","code_com":"039","nom_com_20":"Belmont-Tramonet","CT":"14","AR":"2","Pop":"12423","dept":"73","siren":"247300528","raison_soc":"CC Val Guiers","nature_jur":"CCFPU","dep_com":"73","insee":"73039","siren_memb":"217300391","nom_membre":"Belmont-Tramonet"},"id":"EUaej"}
]}