{"type":"FeatureCollection", "features": [
{"type":"Feature","geometry":{"type":"Polygon","coordinates":[[[1.8047924,50.3595178],[1.8321877,50.3447373],[1.8724972,50.334333],[1.8833554,50.317698],[1.9183939,50.3117885],[1.9395926,50.3308326],[1.9634747,50.317224],[1.9349971,50.3021679],[1.9456772,50.2879383],[1.98955,50.2757203],[2.0397521,50.277375],[2.0584755,50.2884309],[2.0517092,50.3138951],[2.0818627,50.3090282],[2.1102908,50.3222401],[2.1579796,50.284575],[2.1762219,50.3124182],[2.208213,50.3259077],[2.186824,50.340422],[2.184166,50.388403],[2.2102512,50.3971461],[2.1839546,50.4392378],[2.1671199,50.446633],[2.1387587,50.4780887],[2.1066038,50.4679228],[2.0981865,50.4511717],[2.0695893,50.4274441],[2.0417301,50.4284246],[2.010067,50.4477549],[1.9788487,50.439592],[1.9380198,50.4862275],[1.9021463,50.4856931],[1.874288,50.5115141],[1.8358827,50.4962296],[1.8227649,50.4766461],[1.7980629,50.4603582],[1.820272,50.4527594],[1.7959061,50.4285803],[1.7583119,50.4229218],[1.7530516,50.4029471],[1.7693712,50.3612307],[1.8047924,50.3595178]]]},"properties":{"loc_name": "CC 7 Vallées", "@id":"relation/3391149","alt_name":"7 Vallées comm","boundary":"local_authority","local_authority:FR":"CC","name":"Communauté de communes des Sept Vallées","ref:FR:SIREN":"200044030","type":"boundary","website":"https://7vallees.fr/","wikidata":"Q16305359","wikipedia":"fr:Communauté de communes des 7 Vallées"},"id":"relation/3391149"}
]}