{"type":"FeatureCollection", "features": [
{"type":"Feature","geometry":{"type":"Polygon","coordinates":[[[6.3352834,45.1224578],[6.3019272,45.1091849],[6.2664273,45.1247685],[6.2292343,45.1087771],[6.2439955,45.0693505],[6.2207192,45.0657752],[6.200833,45.0222449],[6.2032045,45.0114822],[6.2539389,44.9958156],[6.3070295,45.0048605],[6.3310138,44.9465302],[6.3647336,44.9441865],[6.3890986,44.9564347],[6.4287823,44.955119],[6.4847502,44.9356108],[6.5089359,44.9380889],[6.5289075,44.9070053],[6.6005584,44.863653],[6.630102,44.8286087],[6.6327178,44.8085291],[6.6715082,44.7958821],[6.6986193,44.8163256],[6.7420979,44.8206452],[6.7643874,44.8130916],[6.7871728,44.8211761],[6.8294099,44.8128182],[6.87698,44.8362286],[6.8635712,44.8504981],[6.749776,44.907334],[6.763419,44.971226],[6.7482652,45.0161652],[6.673405,45.0197642],[6.6594803,45.051491],[6.6632386,45.0721211],[6.6157221,45.1215527],[6.5769791,45.1231207],[6.5619637,45.1052725],[6.4909516,45.0978343],[6.487087,45.056404],[6.443464,45.0550815],[6.3649601,45.070009],[6.3758083,45.0832633],[6.3629274,45.1052008],[6.3352834,45.1224578]]]},"properties":{"loc_name": "CC Briançon", "@id":"relation/2151604","boundary":"local_authority","local_authority:FR":"CC","name":"Communauté de communes du Briançonnais","ref:FR:SIREN":"240500439","source":"Arrêté préfectoral nº 2012-356-0014 portant modification du périmètre de la CC du Briançonnais - intégration de la commune de Puy-Saint-Pierre","source:website":"http://www.paca.territorial.gouv.fr/actes3/web/acte.php?aid=24053","type":"boundary","website":"https://www.ccbrianconnais.fr/","wikidata":"Q1118470","wikipedia":"fr:Communauté de communes du Briançonnais"},"id":"relation/2151604"}
]}