{"type":"FeatureCollection", "features": [
{"type":"Feature","geometry":{"type":"Polygon","coordinates":[[[4.5582575,46.6394315],[4.5458859,46.6319729],[4.5281924,46.6285846],[4.5244517,46.5946496],[4.5070864,46.5884882],[4.5141319,46.575475],[4.5060971,46.5725008],[4.4973233,46.5555557],[4.4803534,46.5478123],[4.4696678,46.5484033],[4.4683493,46.5564866],[4.4475436,46.5622969],[4.4347293,46.559621],[4.4115025,46.5459929],[4.4112772,46.5259603],[4.4141872,46.5143767],[4.4291323,46.5019778],[4.4308634,46.491022],[4.4445722,46.4883806],[4.4613974,46.5099823],[4.4841416,46.4935143],[4.4764665,46.4793048],[4.4667744,46.4722693],[4.4769729,46.4618437],[4.4973023,46.4520868],[4.4828572,46.4393868],[4.4758667,46.4194745],[4.4838476,46.4088405],[4.5109004,46.4021717],[4.5144732,46.3900763],[4.5366059,46.3949674],[4.5531779,46.391842],[4.5584776,46.386493],[4.5759847,46.3818217],[4.6079897,46.3689976],[4.623491,46.3792337],[4.6390503,46.3823973],[4.6519334,46.3776157],[4.6613311,46.3857397],[4.656362,46.4016741],[4.6814019,46.3895885],[4.6849319,46.3777953],[4.6946966,46.3801171],[4.6954092,46.4027704],[4.7002071,46.4165093],[4.7170786,46.4321636],[4.7208818,46.4414842],[4.7319729,46.4507176],[4.7567066,46.4649811],[4.7577894,46.4803513],[4.7672623,46.4962662],[4.7649448,46.5086924],[4.7761056,46.525233],[4.7715009,46.5322759],[4.75832,46.5387602],[4.7495001,46.5337468],[4.7386839,46.545117],[4.7178934,46.54029],[4.720167,46.526278],[4.705222,46.516829],[4.685612,46.5218713],[4.6837852,46.5355507],[4.671556,46.539704],[4.657916,46.549427],[4.6557974,46.5650637],[4.6461104,46.5686824],[4.6208396,46.5699721],[4.6065788,46.5860627],[4.6093553,46.6045552],[4.5999511,46.6160742],[4.5895947,46.6216719],[4.5784463,46.6370173],[4.5582575,46.6394315]]]},"properties":{"loc_name": "CC Clunisois","@id":"relation/3470503","boundary":"local_authority","local_authority:FR":"CC","name":"Communauté de communes du Clunisois","ref:FR:SIREN":"200040293","source":"http://www.saone-et-loire.gouv.fr/IMG/pdf/recueil-71-2016-078-recueil-des-actes-administratifs.pdf","type":"boundary","website":"https://www.enclunisois.com/","wikidata":"Q1118646","wikipedia":"fr:Communauté de communes du Clunisois"},"id":"relation/3470503"}
]}