{"type":"FeatureCollection", "features": [
{"type":"Feature","geometry":{"type":"Polygon","coordinates":[[[3.5387338,43.7911022],[3.5742652,43.7876393],[3.5900983,43.7759673],[3.5823209,43.7575484],[3.6107955,43.742527],[3.6585862,43.7878511],[3.674408,43.7853225],[3.6789153,43.7591003],[3.6642466,43.719471],[3.6919846,43.7153856],[3.7203035,43.7378155],[3.7446366,43.7146348],[3.6976788,43.6592388],[3.7297134,43.6395616],[3.7828751,43.6630429],[3.8005277,43.6590387],[3.8643628,43.6804305],[3.8461642,43.7237968],[3.8741928,43.7319815],[3.8885984,43.6754064],[3.9493811,43.669401],[3.9390299,43.7085483],[3.9490864,43.740438],[3.9397376,43.7560445],[3.9825587,43.7660675],[4.0031913,43.7342114],[4.0370696,43.7481788],[4.0114691,43.7614231],[4.0057734,43.7766405],[3.9795265,43.7929436],[3.9615444,43.8160898],[3.978079,43.8295372],[3.9583771,43.8540736],[3.9223221,43.8580699],[3.9196056,43.8811688],[3.8571834,43.8771725],[3.8519143,43.8675853],[3.7719807,43.8864794],[3.7363692,43.851124],[3.7244529,43.8266895],[3.698424,43.8230703],[3.6702789,43.8400057],[3.6770967,43.8516542],[3.6572314,43.8773525],[3.6189428,43.8588657],[3.581224,43.8482804],[3.5634975,43.8331465],[3.5671314,43.8130656],[3.5387338,43.7911022]]]},"properties":{"loc_name": "CC Grand Pic St Loup", "@id":"relation/2167698","boundary":"local_authority","local_authority:FR":"CC","name":"Communauté de communes du Grand Pic Saint-Loup","population":"47600","ref:FR:SIREN":"200022986","type":"boundary","website":"https://www.cc-grandpicsaintloup.fr/","wikidata":"Q2988424","wikipedia":"fr:Communauté de communes du Grand Pic Saint-Loup"},"id":"relation/2167698"}
]}