{"type":"FeatureCollection", "features": [
{"type":"Feature","geometry":{"type":"Polygon","coordinates":[[[-0.4610613,46.3172833],[-0.4616908,46.3159795],[-0.4633716,46.315897],[-0.463255,46.3151596],[-0.4613845,46.3149152],[-0.4610538,46.3143537],[-0.4597951,46.3142397],[-0.4582043,46.315431],[-0.4579899,46.3159374],[-0.4581993,46.3162897],[-0.4578275,46.3166928],[-0.4591511,46.3170982],[-0.4589125,46.3182089],[-0.4597185,46.3184949],[-0.4601304,46.3172699],[-0.4610388,46.3174704],[-0.4607109,46.3181976],[-0.4616094,46.3182811],[-0.4618542,46.3188686],[-0.4630763,46.3191875],[-0.4631774,46.3203643],[-0.4649978,46.3204949],[-0.4655801,46.3202052],[-0.4654133,46.3193729],[-0.4646565,46.3179265],[-0.4642599,46.3179446],[-0.4636954,46.3167632],[-0.4610613,46.3172833]]]},"properties":{"loc_name": "Centre Hospitalier de Niort", "@id":"relation/9886101","amenity":"hospital","contact:twitter":"HopitaldeNiort","emergency":"yes","fax":"+33 5 49 78 27 00","healthcare":"hospital","healthcare:speciality":"intensive","name":"Centre hospitalier de Niort","operator:type":"public","phone":"+33 5 49 32 79 79","ref:FR:FINESS":"790000087","source":"cadastre-dgi-fr source : Direction Générale des Impôts - Cadastre. Mise à jour : 2009","type":"multipolygon","type:FR:FINESS":"355","website":"https://www.ch-niort.fr/"},"id":"relation/9886101"}
]}