{"type":"FeatureCollection", "features": [
{"type":"Feature","geometry":{"type":"Polygon","coordinates":[[[4.842235,44.0118752],[4.833373,44.0157345],[4.8189756,44.0181124],[4.816586,44.031133],[4.8081183,44.0399005],[4.7882842,44.0523998],[4.787309,44.0652751],[4.781328,44.0686678],[4.7687068,44.0715872],[4.7624388,44.0749112],[4.7559189,44.0743666],[4.7558631,44.0532658],[4.7314726,44.0520305],[4.7272196,44.0442014],[4.7196573,44.0448972],[4.7118758,44.0364572],[4.7163856,44.024697],[4.7257033,44.0144181],[4.7387174,44.0134062],[4.7416761,44.0073397],[4.7349481,43.9985608],[4.7249215,43.9931361],[4.7138947,43.9908722],[4.6899354,43.9982524],[4.6652552,44.0000835],[4.6481389,44.0068326],[4.6367684,44.0068404],[4.6369936,44.0165222],[4.6204967,44.0162559],[4.6194236,44.0068084],[4.6228784,43.9955309],[4.6380104,43.9951535],[4.6383541,43.9891313],[4.6528533,43.9685521],[4.6642934,43.9642235],[4.6723688,43.9505641],[4.6719468,43.9373655],[4.6793369,43.9274813],[4.6952123,43.9314032],[4.7151525,43.931832],[4.732545,43.9297866],[4.7354315,43.9166551],[4.7433944,43.9234503],[4.7612906,43.9214269],[4.8225859,43.9128353],[4.853161,43.9113788],[4.8852394,43.9003474],[4.9026572,43.888347],[4.9217974,43.8878197],[4.946618,43.8779012],[4.9666139,43.8712257],[4.9759147,43.8664755],[4.9921196,43.8504637],[4.9739878,43.8825412],[4.9827974,43.8846243],[4.984256,43.8890941],[4.9955503,43.8906422],[4.9915777,43.8951073],[4.9837695,43.8968101],[4.9698115,43.9107317],[4.9646656,43.9096075],[4.9520877,43.9122961],[4.9410769,43.908647],[4.9313715,43.9105829],[4.9187432,43.9178546],[4.9228336,43.9305373],[4.9193089,43.9356903],[4.9209399,43.9459152],[4.9348522,43.942443],[4.9431016,43.9459229],[4.9590943,43.9485493],[4.959282,43.9546443],[4.9507993,43.9624288],[4.9769325,43.9680143],[5.001653,43.9613577],[5.0005762,43.956788],[5.0060727,43.9463039],[5.0172091,43.9443425],[5.0216249,43.9462231],[5.0415559,43.9447839],[5.0618007,43.9548038],[5.0693106,43.9606006],[5.0656932,43.9703128],[5.0518166,43.9726999],[5.039948,43.9772807],[5.0162924,43.9743387],[4.9992707,43.9660126],[4.9946555,43.9708973],[4.9563558,43.9731462],[4.9512064,43.9751592],[4.9621712,43.9864251],[4.9524221,43.9999223],[4.9461751,44.0058189],[4.9378361,44.0177817],[4.9360711,44.0244078],[4.9275747,44.0203492],[4.9187859,44.0205129],[4.9100967,44.0165814],[4.9065632,44.0043024],[4.9109767,43.9929969],[4.8937923,43.9870128],[4.8845058,43.9816185],[4.8670053,43.9894154],[4.8514741,43.9892204],[4.8455335,43.9967419],[4.842235,44.0118752]]]},"properties":{"loc_name": "CA du Grand Avignon", "@id":"relation/1271993","boundary":"local_authority","local_authority:FR":"CA","name":"Grand Avignon","name:ar":"أفينيون الكبير","official_name":"Communauté d'Agglomération du Grand Avignon","old_short_name":"COGA","ref:FR:SIREN":"248400251","short_name":"coGA","type":"boundary","website":"https://www.grandavignon.fr/","wikidata":"Q1120105","wikipedia":"fr:Grand Avignon"},"id":"relation/1271993"}
]}