{"type":"FeatureCollection", "features": [
{"type":"Feature","geometry":{"type":"Polygon","coordinates":[[[-1.8368443,48.1244213],[-1.8374514,48.1279919],[-1.8345917,48.1314972],[-1.8310451,48.132401],[-1.8298868,48.1352548],[-1.8259265,48.1364132],[-1.8283161,48.1400558],[-1.8336646,48.1414256],[-1.8360846,48.1386676],[-1.8469971,48.137354],[-1.8477839,48.1354951],[-1.8649395,48.1339148],[-1.8658681,48.1321048],[-1.8730363,48.1281333],[-1.8837939,48.1277778],[-1.8866222,48.1261395],[-1.8867247,48.1202658],[-1.8816979,48.112198],[-1.8783868,48.1118813],[-1.8684851,48.1139101],[-1.8621652,48.1116934],[-1.8610173,48.1148397],[-1.85796,48.115127],[-1.8500229,48.1183316],[-1.8472958,48.117606],[-1.8376919,48.1189059],[-1.8361432,48.1199187],[-1.8368443,48.1244213]]]},"properties":{"loc_name": "La Chapelle-Thouarault", "@id":"relation/128195","admin_level":"8","boundary":"administrative","name":"La Chapelle-Thouarault","name:br":"Bredual","population":"2252","population:date":"2021","postal_code":"35590","ref:FR:SIREN":"213500655","ref:INSEE":"35065","source:population":"INSEE 2024","source:postal_code":"source of postcode is from osm nodes","type":"boundary","wikidata":"Q664527","wikipedia":"fr:La Chapelle-Thouarault"},"id":"relation/128195"}
]}