{"type":"FeatureCollection", "features": [
{"type":"Feature","geometry":{"type":"Polygon","coordinates":[[[4.5411685,45.1009497],[4.5424035,45.1031696],[4.5419678,45.1056964],[4.5434459,45.1084649],[4.543056,45.1105516],[4.5491753,45.1171482],[4.5493203,45.120658],[4.5504264,45.1220527],[4.5466688,45.1292407],[4.5444477,45.1302989],[4.5286009,45.1314104],[4.5264436,45.1350675],[4.5283068,45.1391446],[4.5262902,45.1399457],[4.5253128,45.1374375],[4.5229912,45.1352405],[4.5191969,45.1334026],[4.5174442,45.1306803],[4.518211,45.1281538],[4.509933,45.1200065],[4.5045157,45.1174909],[4.5028016,45.1130216],[4.5012384,45.1135061],[4.4943862,45.113035],[4.4927242,45.1116773],[4.4929844,45.1092455],[4.4964053,45.1079103],[4.5005026,45.1084982],[4.5063083,45.1077574],[4.5064999,45.1037341],[4.5110098,45.1043768],[4.514834,45.10421],[4.5159681,45.1019193],[4.5141878,45.1004167],[4.514374,45.0980922],[4.5126849,45.0966535],[4.5147347,45.0939177],[4.5190679,45.0952582],[4.5220688,45.0992184],[4.5251738,45.1010372],[4.5297056,45.1007986],[4.5367221,45.1019249],[4.5411685,45.1009497]]]},"properties":{"loc_name": "Lalouvesc", "@id":"relation/129398","admin_level":"8","alt_name":"La Louvesc","boundary":"administrative","name":"Lalouvesc","name:oc":"L'Alauvesc","population":"377","population:date":"2021","postal_code":"07520","ref:FR:SIREN":"210701280","ref:INSEE":"07128","source:name:oc":"ieo-bdtopoc","source:population":"INSEE 2024","type":"boundary","website":"https://www.lalouvesc.com/","wikidata":"Q45196","wikipedia":"fr:Lalouvesc"},"id":"relation/129398"}
]}