{"type":"FeatureCollection","features":[{"type":"Feature","geometry":{"type":"Polygon","coordinates":[[[0.1972339,48.0180402],[0.1814685,48.035837],[0.1696647,48.0261419],[0.1476197,48.0264645],[0.136291,48.017639],[0.1627894,48.0077032],[0.1638658,47.9925662],[0.1508582,47.9818286],[0.1753303,47.9639524],[0.1752417,47.9579361],[0.192895,47.9446805],[0.2183064,47.941466],[0.2334742,47.944556],[0.2277861,47.9564456],[0.2428449,47.9633807],[0.2355875,47.9688473],[0.255058,47.9806212],[0.2426077,47.984376],[0.235653,48.0010048],[0.2474012,48.0060306],[0.2526916,48.0144228],[0.226904,48.0244313],[0.2118557,48.0239948],[0.1972339,48.0180402]]]},"properties":{"loc_name": "Le Mans", "@id":"relation/107435","admin_level":"8","boundary":"administrative","capital":"6","name":"Le Mans","name:ar":"لو مان","name:be":"Ле Ман","name:bg":"Льо Ман","name:bn":"ল্য মঁস","name:br":"Ar Mañs","name:el":"Λε Μαν","name:eo":"Manso","name:fa":"لو مان","name:fr":"Le Mans","name:he":"לה מאן","name:ja":"ル・マン","name:ka":"ლე-მანი","name:ko":"르망","name:la":"Vindunum","name:lt":"Le Manas","name:lv":"Lemāna","name:mk":"Ле Ман","name:mzn":"لومان","name:oc":"Lo Mans","name:pnb":"لی مانس","name:ru":"Ле Ман","name:sr":"Ле Ман","name:uk":"Ле Ман","name:ur":"لو مان","name:zh":"勒芒","population":"145004","population:date":"2021","postal_code":"72000;72100","ref:FR:SIREN":"217201813","ref:INSEE":"72181","source:population":"INSEE 2024","type":"boundary","website":"https://www.lemans.fr/","wikidata":"Q1476","wikipedia":"fr:Le Mans"},"id":"relation/107435"}]}