{"type":"FeatureCollection", "features": [
{"type":"Feature","geometry":{"type":"Polygon","coordinates":[[[2.8164867,50.4554595],[2.8118861,50.4725762],[2.8064704,50.4678525],[2.801892,50.4706132],[2.7986721,50.4682135],[2.7944929,50.4731289],[2.7900435,50.4729826],[2.779939,50.4791822],[2.7737903,50.4743982],[2.7631612,50.4627924],[2.7609547,50.4594547],[2.7656672,50.4578904],[2.7560898,50.4538791],[2.7579466,50.4504852],[2.7563958,50.4481205],[2.76,50.4427833],[2.7553211,50.4414182],[2.7601288,50.4389781],[2.7653826,50.4408933],[2.7668933,50.4380103],[2.7708293,50.4374099],[2.7859554,50.4412497],[2.7950208,50.4452017],[2.800855,50.444107],[2.8079563,50.4463978],[2.8083801,50.4481248],[2.8165759,50.450588],[2.8164867,50.4554595]]]},"properties":{"loc_name": "Loos en Gohelle", "@id":"relation/1113031","admin_level":"8","boundary":"administrative","name":"Loos-en-Gohelle","population":"6896","population:date":"2021","postal_code":"62750","ref:FR:SIREN":"216205286","ref:INSEE":"62528","source:population":"INSEE 2024","source:postal_code":"La Poste - 12/2014","type":"boundary","wikidata":"Q323727","wikipedia":"fr:Loos-en-Gohelle"},"id":"relation/1113031"}
]}