{"type":"FeatureCollection","features":[{"type":"Feature","geometry":{"type":"Polygon","coordinates":[[[1.9465159,49.0062917],[1.9336172,49.0061303],[1.8758389,48.9922269],[1.877993,48.987517],[1.8767762,48.9817587],[1.8867086,48.9792067],[1.8895539,48.9757775],[1.8955458,48.9799132],[1.9063484,48.9789796],[1.9081501,48.9743516],[1.9158903,48.97032],[1.9240909,48.9708751],[1.9252356,48.9765267],[1.9321604,48.9760445],[1.9316231,48.9835469],[1.938884,48.9809914],[1.9465159,49.0062917]]]},"properties":{"loc_name": "Commune des Mureaux", "@id":"relation/444123","admin_level":"8","boundary":"administrative","name":"Les Mureaux","population":"33977","population:date":"2021","postal_code":"78130","ref:FR:SIREN":"217804400","ref:INSEE":"78440","source:population":"INSEE 2024","type":"boundary","wikidata":"Q317433","wikipedia":"fr:Les Mureaux"},"id":"relation/444123"}]}