{"type":"FeatureCollection", "features": [
{"type":"Feature","geometry":{"type":"Polygon","coordinates":[[[3.2227382,43.8176134],[3.2485012,43.8294107],[3.234411,43.8576946],[3.2425811,43.8743904],[3.2754152,43.8982522],[3.3191324,43.8905597],[3.3415635,43.8950723],[3.3565213,43.9119913],[3.3505167,43.932316],[3.3771528,43.9675458],[3.4058971,43.9695133],[3.4176441,43.9926294],[3.4398592,43.998145],[3.4430918,44.024731],[3.3890573,44.0575158],[3.3526861,44.0496549],[3.3292074,44.0791102],[3.3071517,44.0687139],[3.273799,44.0879647],[3.2912596,44.1054837],[3.3237467,44.1122283],[3.3204659,44.135913],[3.3346061,44.1588224],[3.3750648,44.1790664],[3.3569127,44.2008441],[3.2940468,44.2071528],[3.2419079,44.1918283],[3.2227737,44.2304551],[3.1895524,44.2471853],[3.1611845,44.2448222],[3.1546256,44.2731141],[3.126006,44.2816418],[3.1543436,44.3085025],[3.133936,44.3300554],[3.1199121,44.3624123],[3.1213728,44.3888397],[3.1406418,44.3922577],[3.1298821,44.4211798],[3.1420273,44.4269705],[3.1336181,44.4591681],[3.1010954,44.4794647],[3.0904433,44.4612973],[3.054185,44.4697352],[2.9952468,44.4623129],[2.9830731,44.4285202],[2.9441744,44.4320876],[2.9688822,44.4015218],[2.9272891,44.3333164],[2.8851431,44.3417479],[2.8425406,44.3368074],[2.8292713,44.3221716],[2.8046042,44.3258447],[2.7820784,44.2867349],[2.8122858,44.2721538],[2.8248115,44.2410666],[2.8592338,44.2340509],[2.8633291,44.2126295],[2.8902379,44.1860754],[2.8497407,44.1055127],[2.8109844,44.1164079],[2.7908299,44.1024455],[2.770103,44.1233397],[2.7425057,44.1165174],[2.7031558,44.0841088],[2.6505532,44.0814595],[2.5848836,44.044395],[2.6142478,44.0372352],[2.60995,44.008747],[2.5738835,44.0016106],[2.5658483,43.9868301],[2.5361797,43.9814782],[2.4989793,43.9452267],[2.5339328,43.9361768],[2.5565978,43.918552],[2.5503639,43.8965763],[2.5792606,43.8802954],[2.5618932,43.8445829],[2.6577814,43.7572374],[2.7092182,43.7432801],[2.7367408,43.7297024],[2.7825011,43.737615],[2.7885935,43.7528728],[2.8143481,43.7620352],[2.8723575,43.739812],[2.9118424,43.7404781],[2.9379082,43.6907435],[2.9849972,43.7090315],[3.0215427,43.6945917],[3.0607126,43.692689],[3.0525927,43.745878],[3.0758346,43.7684799],[3.0483775,43.8015049],[3.0649588,43.8354428],[3.084532,43.8358487],[3.1223247,43.8194356],[3.2074508,43.8124138],[3.2227382,43.8176134]]]},"properties":{"loc_name": "PNR Grand Causses", "@id":"relation/5555693","boundary":"protected_area","iucn_level":"5","name":"Parc naturel régional des Grands Causses","protect_class":"5","protection_title":"parc naturel régional","ref:FR:INPN":"FR8000014","short_name":"Parc des Grands Causses","type":"boundary","website":"https://www.parc-grands-causses.fr/","wikidata":"Q2685564","wikipedia":"fr:Parc naturel régional des Grands Causses"},"id":"relation/5555693"}
]}