{"type":"FeatureCollection", "features": [
{"type":"Feature","geometry":{"type":"Polygon","coordinates":[[[4.635244,44.5296427],[4.636108,44.5260069],[4.6353857,44.5225965],[4.641134,44.514189],[4.6473194,44.5202775],[4.6559251,44.5188071],[4.6629743,44.516419],[4.6631599,44.5182185],[4.6709659,44.5221126],[4.6844791,44.5214578],[4.6873094,44.5202257],[4.6892507,44.5252688],[4.7027976,44.5247436],[4.7039787,44.5282124],[4.7069182,44.5307798],[4.705757,44.5338606],[4.7030549,44.5360644],[4.7009411,44.5394651],[4.6976353,44.5418677],[4.6930338,44.5431135],[4.6921364,44.5485639],[4.6925923,44.5581377],[4.6932444,44.5601998],[4.6963136,44.5629443],[4.6879454,44.5652441],[4.6864455,44.5668095],[4.6788456,44.5653441],[4.6628514,44.5682226],[4.6608091,44.5705535],[4.6631168,44.5745598],[4.661109,44.5785817],[4.661315,44.5799173],[4.6575161,44.5808959],[4.6529887,44.5762028],[4.6527434,44.5714894],[4.6502795,44.5687136],[4.6485628,44.561963],[4.6444301,44.5584967],[4.6388063,44.557911],[4.6367188,44.5533219],[4.6316436,44.5546021],[4.6279279,44.5510341],[4.6254162,44.5498751],[4.6253701,44.5458258],[4.62701,44.5405977],[4.6286681,44.5382675],[4.6325883,44.5359],[4.6324162,44.534503],[4.635244,44.5296427]]]},"properties":{"loc_name": "Commune du Teil", "@id":"relation/122620","admin_level":"8","alt_name":"Le Teil-d'Ardèche","boundary":"administrative","name":"Le Teil","name:oc":"Lo Telh","population":"8901","population:date":"2021","postal_code":"07400","ref:FR:SIREN":"210703195","ref:INSEE":"07319","source:name:oc":"ieo-bdtopoc","source:population":"INSEE 2024","type":"boundary","website":"https://www.mairie-le-teil.fr/","wikidata":"Q384423","wikipedia":"fr:Le Teil"},"id":"relation/122620"}
]}