{"type":"FeatureCollection","features":[{"type":"Feature","geometry":{"type":"Polygon","coordinates":[[[1.4287749,43.5460724],[1.4501277,43.5377429],[1.4624109,43.5490659],[1.4751356,43.5566208],[1.498597,43.5534478],[1.5133012,43.5639016],[1.5106977,43.5766098],[1.4980154,43.5814714],[1.4856293,43.6099773],[1.4798395,43.6283717],[1.4906879,43.6338317],[1.4993732,43.646109],[1.4681541,43.6472251],[1.4688833,43.6547846],[1.459608,43.6583378],[1.4528811,43.6506758],[1.4410791,43.6549857],[1.4403287,43.6673001],[1.4298194,43.6664645],[1.4319337,43.6574173],[1.4121431,43.6667407],[1.4017432,43.6496337],[1.4038702,43.6357547],[1.3997845,43.6209097],[1.3875054,43.6155328],[1.3740947,43.6193489],[1.3563602,43.6205829],[1.3503311,43.6042797],[1.3642934,43.597504],[1.3621881,43.5916278],[1.3763631,43.5899549],[1.3688804,43.5734253],[1.3593579,43.5604355],[1.3680214,43.5498992],[1.388668,43.5367635],[1.4053083,43.5436875],[1.4105927,43.5490803],[1.4287749,43.5460724]]]},"properties":{"loc_name": "Toulouse", "@id":"relation/35738","admin_level":"8","boundary":"administrative","name":"Toulouse","name:am":"ቱሉዝ","name:ar":"تولوز","name:az":"Tuluza","name:be":"Тулюза","name:bg":"Тулуза","name:bo":"ཊོའུ་ལོའུ་སེ།","name:br":"Toloza","name:ca":"Tolosa","name:ce":"Тулуза","name:co":"Tolosa","name:csb":"Tólóza","name:de":"Toulouse","name:el":"Τουλούζη","name:en":"Toulouse","name:eo":"Tuluzo","name:es":"Toulouse","name:eu":"Tolosa Okzitania","name:fa":"تولوز","name:frp":"Tolosa","name:gl":"Tolosa","name:he":"טולוז","name:hi":"तुलूज़","name:hy":"Թուլուզ","name:it":"Tolosa","name:ja":"トゥールーズ","name:ka":"ტულუზა","name:kk":"Тулуза","name:kn":"ತೂಲೂಸ್","name:ko":"툴루즈","name:la":"Tolosa","name:lt":"Tulūza","name:lv":"Tulūza","name:mhr":"Тулузо","name:ml":"ടൂളൂസ്","name:mr":"तुलूझ","name:mzn":"تولوز","name:nap":"Tolosa","name:oc":"Tolosa","name:os":"Тулузæ","name:pa":"ਟੁਲੂਜ਼","name:pl":"Tuluza","name:pms":"Tolosa","name:pnb":"تولوز","name:ru":"Тулуза","name:sc":"Tolosa","name:scn":"Tolosa","name:sr":"Тулуза","name:ta":"துலூஸ்","name:th":"ตูลูซ","name:tt":"Тулуза","name:uk":"Тулуза","name:ur":"تولوز","name:vec":"Tołoxa","name:xmf":"ტულუზა","name:yi":"טולוז","name:yue":"圖魯茲","name:zh":"图卢兹","old_name:es":"Tolosa","population":"504078","population:date":"2021","postal_code":"31000;31100;31200;31300;31400;31500","ref:FR:SIREN":"213105554","ref:INSEE":"31555","short_name:eu":"Tolosa","source:name:oc":"ieo-bdtopoc","source:population":"INSEE 2024","source:postal_code":"La Poste - 12/2014","type":"boundary","website":"https://www.toulouse.fr/","wikidata":"Q7880","wikipedia":"fr:Toulouse"},"id":"relation/35738"}]}