{"type":"FeatureCollection", "features": [
{"type":"Feature","geometry":{"type":"Polygon","coordinates":[[[3.203799,50.6239724],[3.2012201,50.6261831],[3.2023527,50.6277628],[3.2017101,50.6300568],[3.1992095,50.6270946],[3.1961955,50.6270396],[3.1931276,50.624023],[3.1915243,50.6230991],[3.1895705,50.6232725],[3.186477,50.6212155],[3.1804728,50.6181992],[3.1787986,50.6184727],[3.175677,50.6168563],[3.1766138,50.6137213],[3.1765937,50.6112653],[3.1755515,50.6110983],[3.1772422,50.6091382],[3.1832719,50.6098764],[3.1893913,50.6114773],[3.1938685,50.6117181],[3.195533,50.6115434],[3.1956625,50.6130263],[3.1951564,50.6156615],[3.1974077,50.6171081],[3.1967211,50.6237638],[3.1969711,50.62429],[3.203799,50.6239724]]]},"properties":{"loc_name": "Commune de Tressin", "@id":"relation/58206","admin_level":"8","boundary":"administrative","name":"Tressin","population":"1395","population:date":"2021","postal_code":"59152","ref:FR:SIREN":"215906025","ref:INSEE":"59602","source:population":"INSEE 2024","source:postal_code":"La Poste - 12/2014","type":"boundary","wikidata":"Q532311","wikipedia":"fr:Tressin"},"id":"relation/58206"}
]}